LEMUR-2-AMANDA-SVANTE   
1 48269U 21034B   26068.77637527  .00030872  00000+0  11134-2 0  9996
2 48269  97.5829 144.8625 0002703 205.4721 154.6385 15.28469003265849
STARLINK-30489          
1 57974U 23151L   26068.08009000 -.00001451  00000+0 -44439-4 0  9993
2 57974  43.0031 339.3962 0002370 252.2381 107.8212 15.26719030135672
